     2.100          NAVIGATION                              RINEX VERSION / TYPE
fic2rin                                 06/16/2012 00:06:57 PGM / RUN BY / DATE
                                                            END OF HEADER
14 12  6 15 18  0  0.0  .205194111913D-03  .795807864051D-12  .000000000000D+00
     .170000000000D+02  .644375000000D+02  .436125309227D-08 -.287062359677D+00
     .339932739735D-05  .641742139123D-02  .330246984959D-05  .515360060120D+04
     .496800000000D+06 -.186264514923D-07  .676849283501D+00  .633299350739D-07
     .978560052565D+00  .328562500000D+03 -.207171428918D+01 -.821248494010D-08
     .211437378644D-09  .100000000000D+01  .169200000000D+04  .000000000000D+00
     .240000000000D+01  .000000000000D+00 -.884756445885D-08  .170000000000D+02
     .489606000000D+06  .400000000000D+01
15 12  6 15 18  0  0.0 -.917548313737D-04 -.227373675443D-12  .000000000000D+00
     .310000000000D+02  .794062500000D+02  .494627746088D-08 -.765641938963D+00
     .412948429585D-05  .439071923029D-02  .344403088093D-05  .515357744980D+04
     .496800000000D+06  .484287738800D-07  .588422683790D+00 -.335276126862D-07
     .945426842309D+00  .300625000000D+03  .507621923462D-01 -.845320925295D-08
     .263582407837D-09  .100000000000D+01  .169200000000D+04  .000000000000D+00
     .240000000000D+01  .000000000000D+00 -.102445483208D-07  .310000000000D+02
     .489606000000D+06  .400000000000D+01
17 12  6 15 18  0  0.0  .120846554637D-03 -.295585778076D-11  .000000000000D+00
     .420000000000D+02  .603125000000D+01  .473626871317D-08  .101590268671D-01
     .365078449249D-06  .738358194940D-02  .670179724693D-05  .515368986320D+04
     .496800000000D+06  .204890966415D-07 -.249439559896D+01  .122934579849D-06
     .963122770455D+00  .252437500000D+03 -.229338941870D+01 -.814712507475D-08
     .246081678861D-09  .100000000000D+01  .169200000000D+04  .000000000000D+00
     .240000000000D+01  .000000000000D+00 -.107102096081D-07  .420000000000D+02
     .489606000000D+06  .400000000000D+01
18 12  6 15 18  0  0.0  .200686044991D-03  .181898940355D-11  .000000000000D+00
     .220000000000D+02  .573750000000D+02  .493520557112D-08  .148662528702D+01
     .303611159325D-05  .134409789462D-01  .984221696854D-05  .515370966339D+04
     .496800000000D+06 -.314787030220D-06 -.427175031315D+00 -.204890966415D-07
     .929755632283D+00  .173187500000D+03 -.217171886730D+01 -.829820279631D-08
    -.155363614375D-09  .100000000000D+01  .169200000000D+04  .000000000000D+00
     .240000000000D+01  .000000000000D+00 -.107102096081D-07  .220000000000D+02
     .489606000000D+06  .400000000000D+01
19 12  6 15 18  0  0.0 -.275513157248D-03 -.363797880709D-11  .000000000000D+00
     .900000000000D+02  .359375000000D+01  .472019661514D-08 -.817127351194D+00
     .150874257088D-06  .842284376267D-02  .633299350739D-05  .515357809067D+04
     .496800000000D+06  .210478901863D-06 -.244142856524D+01 -.111758708954D-06
     .960445950749D+00  .258343750000D+03  .177946939884D+00 -.805819279893D-08
     .174650132022D-09  .100000000000D+01  .169200000000D+04  .000000000000D+00
     .240000000000D+01  .000000000000D+00 -.144354999065D-07  .900000000000D+02
     .489606000000D+06  .400000000000D+01
20 12  6 15 18  0  0.0  .639306381345D-04  .341060513165D-12  .000000000000D+00
     .140000000000D+02  .692187500000D+02  .486841707483D-08  .185329316053D+01
     .357814133167D-05  .493457063567D-02  .102017074823D-04  .515369061089D+04
     .496800000000D+06  .931322574615D-08 -.480868874919D+00 -.145286321640D-06
     .930198922793D+00  .164437500000D+03  .129262455477D+01 -.812640992616D-08
    -.800033324599D-10  .100000000000D+01  .169200000000D+04  .000000000000D+00
     .240000000000D+01  .000000000000D+00 -.791624188423D-08  .140000000000D+02
     .489606000000D+06  .400000000000D+01
21 12  6 15 18  0  0.0 -.230431556702D-03 -.238742359215D-11  .000000000000D+00
     .890000000000D+02 -.235937500000D+02  .513557106001D-08  .257237115434D+01
    -.145472586155D-05  .192305971868D-01  .686757266521D-05  .515360078621D+04
     .496800000000D+06  .558793544769D-08 -.147796194906D+01 -.268220901489D-06
     .930935633709D+00  .229406250000D+03 -.224273688084D+01 -.801640534403D-08
    -.355371945525D-09  .100000000000D+01  .169200000000D+04  .000000000000D+00
     .240000000000D+01  .000000000000D+00 -.111758708954D-07  .890000000000D+02
     .489606000000D+06  .400000000000D+01
22 12  6 15 18  0  0.0  .144620891660D-03  .454747350886D-12  .000000000000D+00
     .720000000000D+02  .697500000000D+02  .504128141818D-08  .680657197819D+00
     .362098217010D-05  .618737807963D-02  .944733619690D-05  .515368173981D+04
     .496800000000D+06 -.126659870148D-06 -.423835594568D+00 -.372529029846D-08
     .927479934474D+00  .180281250000D+03 -.201676815552D+01 -.825748681461D-08
    -.157149403046D-09  .100000000000D+01  .169200000000D+04  .000000000000D+00
     .340000000000D+01  .000000000000D+00 -.167638063431D-07  .720000000000D+02
     .489606000000D+06  .400000000000D+01
23 12  6 15 18  0  0.0  .195031519979D-03 -.375166564481D-11  .000000000000D+00
     .330000000000D+02  .766875000000D+02  .469483841601D-08 -.121963939917D+01
     .378116965294D-05  .800148095004D-02  .296160578728D-05  .515362078857D+04
     .496800000000D+06  .540167093277D-07  .624415335668D+00 -.128522515297D-06
     .960163385196D+00  .318718750000D+03 -.299758610072D+01 -.833106130786D-08
     .337514058815D-09  .100000000000D+01  .169200000000D+04  .000000000000D+00
     .240000000000D+01  .000000000000D+00 -.200234353542D-07  .330000000000D+02
     .489606000000D+06  .400000000000D+01
25 12  6 15 18  0  0.0  .354521907866D-04  .568434188608D-12  .000000000000D+00
     .590000000000D+02 -.606875000000D+02  .415445876417D-08  .200355108712D+01
    -.320933759212D-05  .175265374128D-02  .984594225883D-05  .515370729637D+04
     .496800000000D+06 -.782310962677D-07  .269660754409D+01 -.242143869400D-07
     .969162834436D+00  .194062500000D+03  .712208522572D+00 -.774639409698D-08
     .131076888450D-09  .100000000000D+01  .169200000000D+04  .000000000000D+00
     .240000000000D+01  .000000000000D+00  .558793544769D-08  .590000000000D+02
     .489606000000D+06  .400000000000D+01
26 12  6 15 18  0  0.0 -.373555812985D-03  .104591890704D-10  .000000000000D+00
     .700000000000D+01  .730312500000D+02  .415160150230D-08 -.136664500872D+01
     .430829823017D-05  .208628549008D-01  .304169952869D-05  .515366656303D+04
     .496800000000D+06  .331550836563D-06  .697558542010D+00  .409781932831D-06
     .983251407019D+00  .331093750000D+03  .120050550887D+01 -.802354849872D-08
     .234295473633D-09  .100000000000D+01  .169200000000D+04  .000000000000D+00
     .240000000000D+01  .000000000000D+00 -.605359673500D-08  .700000000000D+01
     .489606000000D+06  .400000000000D+01
27 12  6 15 18  0  0.0  .399022363126D-03  .409272615798D-11  .000000000000D+00
     .630000000000D+02 -.661875000000D+02  .432053711057D-08 -.493772327325D+00
    -.359304249287D-05  .217092455132D-01  .403448939323D-05  .515371953964D+04
     .496800000000D+06 -.298023223877D-06  .162167479772D+01 -.175088644028D-06
     .981788230003D+00  .316406250000D+03 -.107319150813D+01 -.841427905993D-08
     .171435712414D-10  .100000000000D+01  .169200000000D+04  .000000000000D+00
     .240000000000D+01  .000000000000D+00 -.419095158577D-08  .630000000000D+02
     .489606000000D+06  .400000000000D+01
28 12  6 15 18  0  0.0  .155059620738D-03  .397903932026D-11  .000000000000D+00
     .580000000000D+02 -.616250000000D+02  .406802659249D-08  .608025901622D+00
    -.309012830257D-05  .178632612806D-01  .101905316114D-04  .515363551903D+04
     .496800000000D+06 -.197440385818D-06  .275575522091D+01  .596046447754D-07
     .979533172506D+00  .200343750000D+03 -.182719290553D+01 -.800961934708D-08
     .617882880159D-10  .100000000000D+01  .169200000000D+04  .000000000000D+00
     .240000000000D+01  .000000000000D+00 -.107102096081D-07  .580000000000D+02
     .489606000000D+06  .400000000000D+01
29 12  6 15 18  0  0.0  .323741696775D-03  .397903932026D-11  .000000000000D+00
     .180000000000D+03  .121875000000D+02  .460804908660D-08  .282825603212D+01
     .605359673500D-06  .221473001875D-02  .663846731186D-05  .515356315231D+04
     .496800000000D+06  .279396772385D-07 -.248581807577D+01  .409781932831D-07
     .963662301957D+00  .252281250000D+03 -.112191810848D+01 -.796961768085D-08
     .224652214809D-09  .100000000000D+01  .169200000000D+04  .000000000000D+00
     .340000000000D+01  .000000000000D+00 -.931322574615D-08  .180000000000D+03
     .489606000000D+06  .400000000000D+01
30 12  6 15 18  0  0.0 -.239288900048D-03 -.229647412198D-10  .000000000000D+00
     .146000000000D+03 -.651875000000D+02  .446697178159D-08 -.104092230168D+00
    -.317953526974D-05  .111519314814D-01  .983476638794D-05  .515366947746D+04
     .496800000000D+06 -.162050127983D-06  .260555898996D+01  .335276126862D-07
     .960337801604D+00  .190281250000D+03  .156907880830D+01 -.812140971788D-08
     .989326923723D-10  .100000000000D+01  .169200000000D+04  .000000000000D+00
     .240000000000D+02  .000000000000D+00 -.419095158577D-08  .146000000000D+03
     .489606000000D+06  .400000000000D+01
31 12  6 15 18  0  0.0  .252965837717D-03  .295585778076D-11  .000000000000D+00
     .130000000000D+02 -.755625000000D+02  .426339187310D-08 -.281205785560D+01
    -.376068055630D-05  .775296729989D-02  .437162816525D-05  .515366641235D+04
     .496800000000D+06 -.614672899246D-07  .167721765274D+01  .137835741043D-06
     .980671624132D+00  .305750000000D+03 -.859709388404D+00 -.789818613401D-08
    -.155363614375D-09  .100000000000D+01  .169200000000D+04  .000000000000D+00
     .240000000000D+01  .000000000000D+00 -.130385160446D-07  .130000000000D+02
     .489606000000D+06  .400000000000D+01
